41917,IRIDIUM 106,2017,100.4,860.0,+,86.39,Active,1,LEO,USA,USA,Commercial/Government,Communications,Falcon,1 41917U 17003A   24042.54738472  .00000271  00000+0  89663-4 0  9990,2 41917  86.3925  86.5434 0002132 101.5096 258.6339 14.34219638370420,14.34219638,0.0002132,LEO
41918,IRIDIUM 103,2017,100.4,860.0,+,86.39,Active,1,LEO,USA,USA,Commercial/Government,Communications,Falcon,1 41918U 17003B   24042.60446946  .00000559  00000+0  19241-3 0  9993,2 41918  86.3924  86.4221 0001927  86.0105 274.1311 14.34218522370459,14.34218522,0.0001927,LEO
41919,IRIDIUM 109,2017,100.4,860.0,+,86.39,Active,1,LEO,USA,USA,Commercial/Government,Communications,Falcon,1 41919U 17003C   24042.61080808  .00000374  00000+0  12651-3 0  9999,2 41919  86.3925  86.4649 0002310  86.9972 273.1488 14.34221046370429,14.34221046,0.000231,LEO
41920,IRIDIUM 102,2017,100.4,860.0,+,86.39,Active,1,LEO,USA,USA,Commercial/Government,Communications,Falcon,1 41920U 17003D   24042.57909999 -.00000043  00000+0 -22456-4 0  9997,2 41920  86.3923  86.4194 0002124  89.7689 270.3750 14.34217177370503,14.34217177,0.0002124,LEO
41921,IRIDIUM 105,2017,100.4,860.0,+,86.39,Active,1,LEO,USA,USA,Commercial/Government,Communications,Falcon,1 41921U 17003E   24042.54976435  .00000281  00000+0  93452-4 0  9990,2 41921  86.3931  54.8285 0002137  88.4076 271.7365 14.34212662372359,14.34212662,0.0002137,LEO
41922,IRIDIUM 104,2017,100.4,860.0,+,86.39,Active,1,LEO,USA,USA,Commercial/Government,Communications,Falcon,1 41922U 17003F   24042.59178095  .00000525  00000+0  18036-3 0  9997,2 41922  86.3926  86.4442 0002174  88.3678 271.7766 14.34221406370492,14.34221406,0.0002174,LEO
41923,IRIDIUM 114,2017,100.4,860.0,+,86.39,Active,1,LEO,USA,USA,Commercial/Government,Communications,Falcon,1 41923U 17003G   24042.59812338  .00000434  00000+0  14808-3 0  9995,2 41923  86.3923  86.4278 0002165 100.2225 259.9215 14.34217894370470,14.34217894,0.0002165,LEO
41924,IRIDIUM 108,2017,100.4,860.0,+,86.39,Active,1,LEO,USA,USA,Commercial/Government,Communications,Falcon,1 41924U 17003H   24042.55664838  .00000095  00000+0  26793-4 0  9992,2 41924  86.3926  54.7583 0002181  98.3110 261.8333 14.34218031372322,14.34218031,0.0002181,LEO
